NORAD_CAT_ID,OBJECT_NAME,OBJECT_TYPE,EPOCH,MEAN_MOTION,ECCENTRICITY,INCLINATION,RA_OF_ASC_NODE,ARG_OF_PERICENTER,MEAN_ANOMALY,BSTAR,MEAN_MOTION_DOT,MEAN_MOTION_DDOT,TLE_LINE0,TLE_LINE1,TLE_LINE2,SEMIMAJOR_AXIS,PERIOD,APOGEE,PERIGEE,DECAYED
52121.0,STARLINK-3678,PAYLOAD,2022-04-22 22:00:00,15.73241911,0.0001219,53.2154,332.2357,121.8524,14.5882,-0.00069709,-0.00097499,0.0,0 STARLINK-3678,1 52121U 22029AK  22112.91667824 -.00097499  00000-0 -69709-3 0  9991,2 52121  53.2154 332.2357 0001219 121.8524  14.5882 15.73241911  6721,6727.776,91.531,350.461,348.821,0.0
52121.0,STARLINK-3678,PAYLOAD,2022-04-23 14:00:01,15.73120139,0.0001338,53.2157,328.9359,129.5125,184.7108,0.00058749,0.00082359,0.0,0 STARLINK-3678,1 52121U 22029AK  22113.58334491  .00082359  00000-0  58749-3 0  9995,2 52121  53.2157 328.9359 0001338 129.5125 184.7108 15.73120139  6822,6728.123000000001,91.538,350.88800000000015,349.088,0.0
52121.0,STARLINK-3678,PAYLOAD,2022-04-24 14:00:01,15.73231336,0.0001537,53.2151,323.9875,125.6598,95.3377,-0.00029428,-0.00041772,0.0,0 STARLINK-3678,1 52121U 22029AK  22114.58334491 -.00041772  00000-0 -29428-3 0  9994,2 52121  53.2151 323.9875 0001537 125.6598  95.3377 15.73231336  6980,6727.806,91.531,350.705,348.63699999999994,0.0
52121.0,STARLINK-3678,PAYLOAD,2022-04-25 14:00:01,15.73155307,0.0001431999999999,53.2153,319.0392,123.7095,4.0808,0.00048844,0.00068358,0.0,0 STARLINK-3678,1 52121U 22029AK  22115.58334491  .00068358  00000-0  48844-3 0  9995,2 52121  53.2153 319.0392 0001432 123.7095   4.0808 15.73155307  7145,6728.023,91.536,350.851,348.9240000000001,0.0
52121.0,STARLINK-3678,PAYLOAD,2022-04-25 22:00:00,15.73202682,0.0001172,53.215,317.3918,114.0234,102.6865,-0.00016622,-0.00023884,0.0,0 STARLINK-3678,1 52121U 22029AK  22115.91667824 -.00023884  00000-0 -16622-3 0  9997,2 52121  53.2150 317.3918 0001172 114.0234 102.6865 15.73202682  3712,6727.888000000001,91.533,350.541,348.964,0.0
52121.0,STARLINK-3678,PAYLOAD,2022-04-26 06:00:00,15.73230343,0.0001114,53.2143,315.7409,124.9934,180.6473,-0.00046309,-0.00065192,0.0,0 STARLINK-3678,1 52121U 22029AK  22116.25001157 -.00065192  00000-0 -46309-3 0  9999,2 52121  53.2143 315.7409 0001114 124.9934 180.6473 15.73230343  7242,6727.809,91.531,350.423,348.9240000000001,0.0
52121.0,STARLINK-3678,PAYLOAD,2022-04-26 14:00:01,15.73187084,0.0001317,53.2145,314.0906,124.444,270.1949,0.00034093,0.00047471,0.0,0 STARLINK-3678,1 52121U 22029AK  22116.58335648  .00047471  00000-0  34093-3 0  9995,2 52121  53.2145 314.0906 0001317 124.4440 270.1949 15.73187084  3691,6727.932,91.534,350.68300000000005,348.911,0.0
52121.0,STARLINK-3678,PAYLOAD,2022-04-26 22:00:00,15.73246715,0.0001338,53.2157,312.4401,114.3201,9.1931,-0.00093157,-0.00129624,0.0,0 STARLINK-3678,1 52121U 22029AK  22116.91667824 -.00129624  00000-0 -93157-3 0  9995,2 52121  53.2157 312.4401 0001338 114.3201   9.1931 15.73246715  7357,6727.762,91.53,350.527,348.727,0.0
52121.0,STARLINK-3678,PAYLOAD,2022-04-27 06:00:00,15.73221966,0.0001384,53.2146,310.7920000000001,112.4594,99.9968,-0.00039627,-0.00055918,0.0,0 STARLINK-3678,1 52121U 22029AK  22117.25001157 -.00055918  00000-0 -39627-3 0  9990,2 52121  53.2146 310.7920 0001384 112.4594  99.9968 15.73221966  7401,6727.833000000001,91.532,350.629,348.766,0.0
52121.0,STARLINK-3678,PAYLOAD,2022-04-27 14:00:01,15.73224231,0.0001445,53.2147,309.1419,116.4534,184.9795,-0.00011473,-0.00016707,0.0,0 STARLINK-3678,1 52121U 22029AK  22117.58335648 -.00016707  00000-0 -11473-3 0  9993,2 52121  53.2147 309.1419 0001445 116.4534 184.9795 15.73224231  3703,6727.826,91.532,350.663,348.719,0.0
52121.0,STARLINK-3678,PAYLOAD,2022-04-27 22:00:00,15.73169797,0.0001199,53.2143,307.4943,107.4732,282.8765,0.00064023,0.00090083,0.0,0 STARLINK-3678,1 52121U 22029AK  22117.91667824  .00090083  00000-0  64023-3 0  9990,2 52121  53.2143 307.4943 0001199 107.4732 282.8765 15.73169797  7500,6727.981,91.535,350.653,349.04,0.0
52121.0,STARLINK-3678,PAYLOAD,2022-04-28 14:00:01,15.73267546,0.0001262999999999,53.214,304.193,119.1241,89.1387,-0.00016387,-0.0002362,0.0,0 STARLINK-3678,1 52121U 22029AK  22118.58334491 -.00023620  00000-0 -16387-3 0  9990,2 52121  53.2140 304.1930 0001263 119.1241  89.1387 15.73267546  7615,6727.703,91.529,350.417,348.718,0.0
52121.0,STARLINK-3678,PAYLOAD,2022-04-29 14:00:01,15.73173996,0.000117,53.2144,299.2437,110.6879,4.471,-0.00016731,-0.00024007,0.0,0 STARLINK-3678,1 52121U 22029AK  22119.58334491 -.00024007  00000-0 -16731-3 0  9994,2 52121  53.2144 299.2437 0001170 110.6879   4.4710 15.73173996  7777,6727.969,91.535,350.621,349.047,0.0
52121.0,STARLINK-3678,PAYLOAD,2022-04-29 22:00:00,15.73133857,9.39e-05,53.2141,297.5959,94.8668,109.2094,0.00012619,0.00017077,0.0,0 STARLINK-3678,1 52121U 22029AK  22119.91667824  .00017077  00000-0  12619-3 0  9998,2 52121  53.2141 297.5959 0000939  94.8668 109.2094 15.73133857  3693,6728.084,91.537,350.581,349.31699999999995,0.0
52121.0,STARLINK-3678,PAYLOAD,2022-04-30 06:00:00,15.73126719,0.0001042,53.2138,295.9445,107.2336,185.699,0.00062191,0.00087297,0.0,0 STARLINK-3678,1 52121U 22029AK  22120.25001157  .00087297  00000-0  62191-3 0  9999,2 52121  53.2138 295.9445 0001042 107.2336 185.6990 15.73126719  7874,6728.104,91.537,350.67,349.26800000000014,0.0
52121.0,STARLINK-3678,PAYLOAD,2022-04-30 14:00:01,15.73151484,0.0001175,53.214,294.2952,104.2378,277.5392,0.0018379,0.00265074,0.0,0 STARLINK-3678,1 52121U 22029AK  22120.58334491  .00265074  00000-0  18379-2 0  9994,2 52121  53.2140 294.2952 0001175 104.2378 277.5392 15.73151484  3670,6728.033,91.536,350.689,349.108,0.0
52121.0,STARLINK-3678,PAYLOAD,2022-04-30 22:00:00,15.73382077,9.98e-05,53.214,292.6471,92.8229,17.9657,-0.00094463,-0.00132151,0.0,0 STARLINK-3678,1 52121U 22029AK  22120.91667824 -.00132151  00000-0 -94463-3 0  9990,2 52121  53.2140 292.6471 0000998  92.8229  17.9657 15.73382077  7989,6727.376,91.523,349.913,348.57,0.0
52121.0,STARLINK-3678,PAYLOAD,2022-05-01 06:00:00,15.7322968,8.79e-05,53.2144,290.995,98.8027,101.0753,-0.0005234,-0.00073526,0.0,0 STARLINK-3678,1 52121U 22029AK  22121.25001157 -.00073526  00000-0 -52340-3 0  9997,2 52121  53.2144 290.9950 0000879  98.8027 101.0753 15.73229680  8035,6727.811,91.531,350.267,349.084,0.0
52121.0,STARLINK-3678,PAYLOAD,2022-05-01 14:00:01,15.73199586,0.0001124,53.2146,289.3458,97.409,191.3674,-0.00077519,-0.00108022,0.0,0 STARLINK-3678,1 52121U 22029AK  22121.58334491 -.00108022  00000-0 -77519-3 0  9998,2 52121  53.2146 289.3458 0001124  97.4090 191.3674 15.73199586  3682,6727.896,91.533,350.51800000000014,349.005,0.0
52121.0,STARLINK-3678,PAYLOAD,2022-05-01 22:00:01,15.73092252,0.0001018,53.2142,287.6978,81.8901,295.8569,0.0006881,0.00096619,0.0,0 STARLINK-3678,1 52121U 22029AK  22121.91668981  .00096619  00000-0  68810-3 0  9999,2 52121  53.2142 287.6978 0001018  81.8901 295.8569 15.73092252  3704,6728.2019999999975,91.539,350.75199999999984,349.38199999999995,0.0
52121.0,STARLINK-3678,PAYLOAD,2022-05-02 06:00:00,15.73118078,8.79e-05,53.2142,286.0464,96.4572,10.0463,0.0006411,0.00090005,0.0,0 STARLINK-3678,1 52121U 22029AK  22122.25001157  .00090005  00000-0  64110-3 0  9995,2 52121  53.2142 286.0464 0000879  96.4572  10.0463 15.73118078  8190,6728.129,91.538,350.585,349.402,0.0
52121.0,STARLINK-3678,PAYLOAD,2022-05-02 14:00:01,15.73196228,9.88e-05,53.2144,284.3976,93.6763,101.6713,-6.6766e-05,-9.977e-05,0.0,0 STARLINK-3678,1 52121U 22029AK  22122.58334491 -.00009977  00000-0 -66766-4 0  9991,2 52121  53.2144 284.3976 0000988  93.6763 101.6713 15.73196228  8247,6727.906,91.533,350.436,349.106,0.0
52121.0,STARLINK-3678,PAYLOAD,2022-05-02 22:00:01,15.73158051,0.0001055,53.2143,282.7494,76.342,208.0165,0.00038575,0.00053767,0.0,0 STARLINK-3678,1 52121U 22029AK  22122.91668981  .00053767  00000-0  38575-3 0  9992,2 52121  53.2143 282.7494 0001055  76.3420 208.0165 15.73158051  3708,6728.015,91.536,350.59,349.17,0.0
52121.0,STARLINK-3678,PAYLOAD,2022-05-03 04:00:00,15.73189604,0.0001089,53.2147,281.5106,84.9766,175.9919,0.00029314,0.00040701,0.0,0 STARLINK-3678,1 52121U 22029AK  22123.16667824  .00040701  00000-0  29314-3 0  9990,2 52121  53.2147 281.5106 0001089  84.9766 175.9919 15.73189604  8335,6727.925,91.534,350.522,349.057,0.0
52121.0,STARLINK-3678,PAYLOAD,2022-05-03 14:00:01,15.73267583,0.0001079,53.215,279.449,81.7441,20.366,-0.00045149,-0.00063687,0.0,0 STARLINK-3678,1 52121U 22029AK  22123.58334491 -.00063687  00000-0 -45149-3 0  9991,2 52121  53.2150 279.4490 0001079  81.7441  20.3660 15.73267583  3700,6727.7019999999975,91.529,350.293,348.842,0.0
52121.0,STARLINK-3678,PAYLOAD,2022-05-03 22:00:00,15.7322416,9.96e-05,53.2145,277.8005,66.2029,124.9148,0.00013603,0.00018533,0.0,0 STARLINK-3678,1 52121U 22029AK  22123.91667824  .00018533  00000-0  13603-3 0  9995,2 52121  53.2145 277.8005 0000996  66.2029 124.9148 15.73224160  3701,6727.826,91.532,350.361,349.021,0.0
52121.0,STARLINK-3678,PAYLOAD,2022-05-04 04:00:00,15.73210843,9.91e-05,53.2147,276.5616,74.3763,93.4641,-0.00012356,-0.00017931,0.0,0 STARLINK-3678,1 52121U 22029AK  22124.16667824 -.00017931  00000-0 -12356-3 0  9990,2 52121  53.2147 276.5616 0000991  74.3763  93.4641 15.73210843  8499,6727.864000000001,91.533,350.396,349.06300000000016,0.0
52121.0,STARLINK-3678,PAYLOAD,2022-05-04 12:00:00,15.73258067,0.0001094,53.2148,274.9122,80.7905,175.9847,-0.00022093,-0.00031586,0.0,0 STARLINK-3678,1 52121U 22029AK  22124.50001157 -.00031586  00000-0 -22093-3 0  9990,2 52121  53.2148 274.9122 0001094  80.7905 175.9847 15.73258067  8548,6727.73,91.53,350.331,348.8590000000001,0.0
52121.0,STARLINK-3678,PAYLOAD,2022-05-04 14:00:01,15.73279111,0.0001127,53.2147,274.5004,74.0765,294.9394,-0.00064467,-0.00090431,0.0,0 STARLINK-3678,1 52121U 22029AK  22124.58334491 -.00090431  00000-0 -64467-3 0  9993,2 52121  53.2147 274.5004 0001127  74.0765 294.9394 15.73279111  3704,6727.67,91.529,350.293,348.776,0.0
